STARLINK-37298          
1 68670U 26077J   26201.91730547  .00015037  00000+0  46689-3 0  9997
2 68670  97.2870  72.6589 0002100  90.8209 269.3274 15.33462865 15574
STARLINK-37224          
1 68671U 26077K   26201.91186590  .00003909  00000+0  12338-3 0  9990
2 68671  97.2863  72.6632 0001659  65.8223 294.3193 15.33438881 15571
STARLINK-37296          
1 68672U 26077L   26201.19135608  .00008484  00000+0  26473-3 0  9993
2 68672  97.2847  71.9606 0001954 112.7345 247.4104 15.33456364 15467
STARLINK-37316          
1 68673U 26077M   26201.90643777  .00011724  00000+0  36496-3 0  9991
2 68673  97.2860  72.6736 0001785  87.3165 272.8282 15.33440137 15576
STARLINK-36672          
1 68674U 26077N   26201.18589648  .00011076  00000+0  34470-3 0  9998
2 68674  97.2850  71.9683 0001362 102.4621 257.6775 15.33462162 15464
STARLINK-36669          
1 68675U 26077P   26201.18318634  .00010924  00000+0  34018-3 0  9993
2 68675  97.2859  71.9734 0001966 103.0536 257.0927 15.33446722 15460
STARLINK-37312          
1 68676U 26077Q   26201.88739869  .00010279  00000+0  32019-3 0  9990
2 68676  97.2837  72.7007 0002262  85.4332 274.7169 15.33454246 15572
STARLINK-36168          
1 68677U 26077R   26201.89555691  .00011658  00000+0  36285-3 0  9992
2 68677  97.2860  72.6861 0001871  98.4937 261.6518 15.33448021 15573
STARLINK-37122          
1 68678U 26077S   26201.17502351  .00004745  00000+0  14921-3 0  9991
2 68678  97.2850  71.9856 0002142  87.6253 272.5235 15.33446148 15465
STARLINK-37310          
1 68679U 26077T   26201.89011634  .00019578  00000+0  60694-3 0  9998
2 68679  97.2853  72.6946 0002151  94.9556 265.1932 15.33455848 15575
STARLINK-37306          
1 68680U 26077U   26201.35991907  .00005682  00000+0  17820-3 0  9995
2 68680  97.2867  72.1894 0001863  87.3150 272.8306 15.33444987 15497
STARLINK-37307          
1 68681U 26077V   26201.49313659 -.00009210  00000+0 -28341-3 0  9996
2 68681  97.2856  72.3155 0001552  81.9337 278.2081 15.33432673 15512
STARLINK-37300          
1 68682U 26077W   26201.21853409  .00003468  00000+0  10970-3 0  9995
2 68682  97.2850  72.0784 0001866  91.0110 269.1346 15.33440506 15473
STARLINK-37304          
1 68683U 26077X   26201.22125052  .00001535  00000+0  49870-4 0  9998
2 68683  97.2846  72.0730 0001634  75.9591 284.1834 15.33448306 15472
STARLINK-37287          
1 68684U 26077Y   26201.22396821  .00007127  00000+0  22286-3 0  9997
2 68684  97.2849  72.0699 0001984 106.6314 253.5147 15.33446279 15477
STARLINK-36278          
1 68685U 26077Z   26201.45465550  .00001218  00000+0  40060-4 0  9995
2 68685  97.2864  75.2644 0001621  82.4077 277.7350 15.33439087 15704
STARLINK-37213          
1 68686U 26077AA  26201.87924237  .00013157  00000+0  40896-3 0  9995
2 68686  97.2852  72.7074 0002103  89.1276 271.0208 15.33458221 15577
STARLINK-37358          
1 68699U 26081A   26201.22978836  .00008013  00000+0  24807-3 0  9996
2 68699  53.1577 137.1601 0001362  95.2576 264.8583 15.34395842 15054
STARLINK-37334          
1 68700U 26081B   26201.55336164  .00016632  00000+0  50213-3 0  9993
2 68700  53.1589 135.6264 0000739  75.5381 284.5703 15.34410245 15104
STARLINK-36955          
1 68701U 26081C   26201.22558031  .00014061  00000+0  42647-3 0  9993
2 68701  53.1590 137.1347 0001203  76.1904 283.9232 15.34401653 15058
STARLINK-36275          
1 68702U 26081D   26201.22347618  .00009616  00000+0  29537-3 0  9994
2 68702  53.1591 137.1337 0001515  99.1629 260.9545 15.34399873 15056
STARLINK-36271          
1 68703U 26081E   26201.22137274  .00014049  00000+0  42611-3 0  9994
2 68703  53.1579 137.1089 0001283  82.3201 277.7947 15.34404193 15053
STARLINK-37356          
1 68704U 26081F   26201.54494576  .00012722  00000+0  38700-3 0  9991
2 68704  53.1567 135.5718 0001151  92.3856 267.7279 15.34401297 15108
STARLINK-35369          
1 68705U 26081G   26201.54284368  .00008215  00000+0  25401-3 0  9994
2 68705  53.1595 135.5585 0001325  96.1632 263.9522 15.34399380 15107
STARLINK-37319          
1 68706U 26081H   26201.92734753  .00011659  00000+0  35564-3 0  9992
2 68706  53.1576 133.7106 0001037 108.4059 251.7057 15.34402870 15169
STARLINK-37112          
1 68707U 26081J   26201.08478758  .00010165  00000+0  31154-3 0  9992
2 68707  53.1595 137.6872 0001825 100.0254 260.0954 15.34403297 15033
STARLINK-37340          
1 68708U 26081K   26201.53863492  .00010409  00000+0  31873-3 0  9995
2 68708  53.1588 135.5308 0001289  92.6945 267.4205 15.34402908 15100
STARLINK-37303          
1 68709U 26081L   26201.14361467  .00015637  00000+0  47291-3 0  9997
2 68709  53.1589 137.3361 0001440  57.3552 302.7590 15.34404459 15048
STARLINK-36859          
1 68710U 26081M   26201.53232231  .00009102  00000+0  28018-3 0  9994
2 68710  53.1586 135.4953 0001367  86.4616 273.6543 15.34403336 15109
STARLINK-37320          
1 68711U 26081N   26201.13940279  .00010640  00000+0  32552-3 0  9996
2 68711  53.1586 137.3072 0001207  87.2443 272.8698 15.34405597 15049
