OBJECT_NAME,OBJECT_ID,EPOCH,MEAN_MOTION,ECCENTRICITY,INCLINATION,RA_OF_ASC_NODE,ARG_OF_PERICENTER,MEAN_ANOMALY,EPHEMERIS_TYPE,CLASSIFICATION_TYPE,NORAD_CAT_ID,ELEMENT_SET_NO,REV_AT_EPOCH,BSTAR,MEAN_MOTION_DOT,MEAN_MOTION_DDOT
STARLINK-37298,2026-077J,2026-07-20T22:00:55.192608,15.33462865,.00021004,97.2870,72.6589,90.8209,269.3274,0,U,68670,999,1557,.46689479E-3,.15037E-3,0
STARLINK-37224,2026-077K,2026-07-20T21:53:05.213760,15.33438881,.00016598,97.2863,72.6632,65.8223,294.3193,0,U,68671,999,1557,.12338355E-3,.3909E-4,0
STARLINK-37296,2026-077L,2026-07-20T04:35:33.165312,15.33456364,.0001954,97.2847,71.9606,112.7345,247.4104,0,U,68672,999,1546,.26473127E-3,.8484E-4,0
STARLINK-37316,2026-077M,2026-07-20T21:45:16.223328,15.33440137,.00017853,97.2860,72.6736,87.3165,272.8282,0,U,68673,999,1557,.36495597E-3,.11724E-3,0
STARLINK-36672,2026-077N,2026-07-20T04:27:41.455872,15.33462162,.00013628,97.2850,71.9683,102.4621,257.6775,0,U,68674,999,1546,.34470342E-3,.11076E-3,0
STARLINK-36669,2026-077P,2026-07-20T04:23:47.299776,15.33446722,.00019663,97.2859,71.9734,103.0536,257.0927,0,U,68675,999,1546,.34018305E-3,.10924E-3,0
STARLINK-37312,2026-077Q,2026-07-20T21:17:51.246816,15.33454246,.00022623,97.2837,72.7007,85.4332,274.7169,0,U,68676,999,1557,.32018998E-3,.10279E-3,0
STARLINK-36168,2026-077R,2026-07-20T21:29:36.117024,15.33448021,.00018715,97.2860,72.6861,98.4937,261.6518,0,U,68677,999,1557,.3628471E-3,.11658E-3,0
STARLINK-37122,2026-077S,2026-07-20T04:12:02.031264,15.33446148,.00021421,97.2850,71.9856,87.6253,272.5235,0,U,68678,999,1546,.14920703E-3,.4745E-4,0
STARLINK-37310,2026-077T,2026-07-20T21:21:46.051776,15.33455848,.00021515,97.2853,72.6946,94.9556,265.1932,0,U,68679,999,1557,.60693944E-3,.19578E-3,0
STARLINK-37306,2026-077U,2026-07-20T08:38:17.007648,15.33444987,.00018637,97.2867,72.1894,87.3150,272.8306,0,U,68680,999,1549,.17820205E-3,.5682E-4,0
STARLINK-37307,2026-077V,2026-07-20T11:50:07.001376,15.33432673,.00015528,97.2856,72.3155,81.9337,278.2081,0,U,68681,999,1551,-.28341412E-3,-.921E-4,0
STARLINK-37300,2026-077W,2026-07-20T05:14:41.345376,15.33440506,.00018667,97.2850,72.0784,91.0110,269.1346,0,U,68682,999,1547,.10969768E-3,.3468E-4,0
STARLINK-37304,2026-077X,2026-07-20T05:18:36.044928,15.33448306,.00016346,97.2846,72.0730,75.9591,284.1834,0,U,68683,999,1547,.49870497E-4,.1535E-4,0
STARLINK-37287,2026-077Y,2026-07-20T05:22:30.853344,15.33446279,.00019845,97.2849,72.0699,106.6314,253.5147,0,U,68684,999,1547,.22285574E-3,.7127E-4,0
STARLINK-36278,2026-077Z,2026-07-20T10:54:42.235200,15.33439087,.00016218,97.2864,75.2644,82.4077,277.7350,0,U,68685,999,1570,.40059803E-4,.1218E-4,0
STARLINK-37213,2026-077AA,2026-07-20T21:06:06.540768,15.33458221,.00021032,97.2852,72.7074,89.1276,271.0208,0,U,68686,999,1557,.40895799E-3,.13157E-3,0
STARLINK-37358,2026-081A,2026-07-20T05:30:53.714304,15.34395842,.00013628,53.1577,137.1601,95.2576,264.8583,0,U,68699,999,1505,.24806846E-3,.8013E-4,0
STARLINK-37334,2026-081B,2026-07-20T13:16:50.445696,15.34410245,.0000739,53.1589,135.6264,75.5381,284.5703,0,U,68700,999,1510,.50213E-3,.16632E-3,0
STARLINK-36955,2026-081C,2026-07-20T05:24:50.138784,15.34401653,.00012039,53.1590,137.1347,76.1904,283.9232,0,U,68701,999,1505,.42647169E-3,.14061E-3,0
STARLINK-36275,2026-081D,2026-07-20T05:21:48.341952,15.34399873,.0001515,53.1591,137.1337,99.1629,260.9545,0,U,68702,999,1505,.29537478E-3,.9616E-4,0
STARLINK-36271,2026-081E,2026-07-20T05:18:46.604736,15.34404193,.0001283,53.1579,137.1089,82.3201,277.7947,0,U,68703,999,1505,.42610923E-3,.14049E-3,0
STARLINK-37356,2026-081F,2026-07-20T13:04:43.313664,15.34401297,.0001151,53.1567,135.5718,92.3856,267.7279,0,U,68704,999,1510,.387E-3,.12722E-3,0
STARLINK-35369,2026-081G,2026-07-20T13:01:41.693952,15.34399380,.0001325,53.1595,135.5585,96.1632,263.9522,0,U,68705,999,1510,.25401E-3,.8215E-4,0
STARLINK-37319,2026-081H,2026-07-20T22:15:22.826592,15.34402870,.00010374,53.1576,133.7106,108.4059,251.7057,0,U,68706,999,1516,.35563623E-3,.11659E-3,0
STARLINK-37112,2026-081J,2026-07-20T02:02:05.646912,15.34403297,.0001825,53.1595,137.6872,100.0254,260.0954,0,U,68707,999,1503,.31153618E-3,.10165E-3,0
STARLINK-37340,2026-081K,2026-07-20T12:55:38.057088,15.34402908,.0001289,53.1588,135.5308,92.6945,267.4205,0,U,68708,999,1510,.31873E-3,.10409E-3,0
STARLINK-37303,2026-081L,2026-07-20T03:26:48.307488,15.34404459,.00014403,53.1589,137.3361,57.3552,302.7590,0,U,68709,999,1504,.47291075E-3,.15637E-3,0
STARLINK-36859,2026-081M,2026-07-20T12:46:32.647584,15.34403336,.0001367,53.1586,135.4953,86.4616,273.6543,0,U,68710,999,1510,.28018E-3,.9102E-4,0
STARLINK-37320,2026-081N,2026-07-20T03:20:44.401056,15.34405597,.00012079,53.1586,137.3072,87.2443,272.8698,0,U,68711,999,1504,.32552212E-3,.1064E-3,0
